NOAA 1 [-]              
1 04793U 70106A   23028.78902720 -.00000046  00000+0 -15649-4 0  9997
2 04793 101.5256  91.6505 0031473 242.9515 229.2056 12.54011382385837
NOAA 2 (ITOS-D) [-]     
1 06235U 72082A   23028.90811875 -.00000024  00000+0  13811-3 0  9992
2 06235 101.9798  17.7544 0004105   6.8689  47.6905 12.53156651300210
NOAA 3 [-]              
1 06920U 73086A   23028.89756102 -.00000024  00000+0  16162-3 0  9999
2 06920 102.2348  16.3133 0006414 236.0616 178.6429 12.40352474228747
NOAA 4 [-]              
1 07529U 74089A   23028.88940036 -.00000024  00000+0  13783-3 0  9995
2 07529 101.9423  14.4138 0009157  33.7604  35.9252 12.53165087204786
NOAA 5 [-]              
1 09057U 76077A   23028.89356149 -.00000009  00000+0  27711-3 0  9998
2 09057 102.1344 359.7498 0009882  82.6261 334.1102 12.37779378101634
TIROS N [-]             
1 11060U 78096A   23028.86496706  .00000198  00000+0  11624-3 0  9993
2 11060  98.6054  81.2791 0010159 209.3461 150.7145 14.18476138503566
NOAA 6 [-]              
1 11416U 79057A   23028.66495022  .00000400  00000+0  15963-3 0  9990
2 11416  98.6593  44.8238 0009556 318.5241  41.5217 14.33899377273795
NOAA 7 [-]              
1 12553U 81059A   23028.84768666  .00000043  00000+0  43934-4 0  9998
2 12553  98.9689  80.7057 0011358 190.1522 169.9425 14.17373438149722
NOAA 8 [-]              
1 13923U 83022A   23029.26194634  .00000213  00000+0  10203-3 0  9998
2 13923  98.7046  24.1341 0013992 269.6032  90.3547 14.28892843 74919
NOAA 9 [-]              
1 15427U 84123A   23029.23583959  .00000180  00000+0  11424-3 0  9990
2 15427  99.0750  10.5009 0013945 244.4679 126.1908 14.16279179968809
NOAA 10 [-]             
1 16969U 86073A   23028.89327532  .00000216  00000+0  10402-3 0  9997
2 16969  98.5910  16.1603 0012554  17.0877  39.8996 14.28278150893012
NOAA 11 [-]             
1 19531U 88089A   23029.00087566  .00000090  00000+0  67025-4 0  9992
2 19531  98.4492  10.9572 0010094 246.9459 113.0652 14.15352786772976
NOAA 12 [-]             
1 21263U 91032A   23029.28421836  .00000127  00000+0  71134-4 0  9998
2 21263  98.5258  27.8947 0014420  42.3419 317.8872 14.26053984649179
NOAA 13 [-]             
1 22739U 93050A   23028.93013833  .00000214  00000+0  13717-3 0  9993
2 22739  98.5347   2.8156 0010483  61.0174 299.2049 14.12910749519130
NOAA 14 [-]             
1 23455U 94089A   23028.89560550  .00000059  00000+0  51944-4 0  9992
2 23455  98.4336  48.2229 0010188  41.7016 318.4933 14.14235229448570
NOAA 15 [B]             
1 25338U 98030A   23029.39602603  .00000159  00000+0  84679-4 0  9998
2 25338  98.6227  60.7194 0010324   4.7911 355.3366 14.26232159285478
NOAA 16 [-]             
1 26536U 00055A   23028.87479696  .00000093  00000+0  71915-4 0  9991
2 26536  98.6062  84.6449 0009604 238.5042 121.5193 14.13380678449193
NOAA 17 [-]             
1 27453U 02032A   23028.86945843  .00000256  00000+0  12767-3 0  9998
2 27453  98.7003 336.7979 0011501 342.0205  18.0566 14.25205272 70966
NOAA 18 [B]             
1 28654U 05018A   23029.40942643  .00000209  00000+0  13601-3 0  9991
2 28654  98.9253 104.4034 0014916  55.6615 304.5966 14.12850359911976
NOAA 19 [+]             
1 33591U 09005A   23029.57838703  .00000167  00000+0  11500-3 0  9995
2 33591  99.1214  73.1612 0012976 272.7739  87.1947 14.12676880720379
SUOMI NPP [+]           
1 37849U 11061A   23029.46620854  .00000119  00000+0  77394-4 0  9995
2 37849  98.7565 330.1132 0001177  70.8092  39.8347 14.19542389583251
NOAA 20 [+]             
1 43013U 17073A   23029.54913827  .00000100  00000+0  68253-4 0  9992
2 43013  98.7403 329.7926 0001569  95.6658 264.4697 14.19551276269301
NOAA 21 (JPSS-2) [+]    
1 54234U 22150A   23029.56677606  .00000128  00000+0  81325-4 0  9990
2 54234  98.7043 329.7845 0001130  83.5295 276.6010 14.19563270 11389
